OBJECT_NAME,OBJECT_ID,EPOCH,MEAN_MOTION,ECCENTRICITY,INCLINATION,RA_OF_ASC_NODE,ARG_OF_PERICENTER,MEAN_ANOMALY,EPHEMERIS_TYPE,CLASSIFICATION_TYPE,NORAD_CAT_ID,ELEMENT_SET_NO,REV_AT_EPOCH,BSTAR,MEAN_MOTION_DOT,MEAN_MOTION_DDOT
QIANFAN-236,2026-155T,2026-07-23T18:58:56.496288,14.21104005,.0029681,89.0061,59.9693,193.6709,166.3682,0,U,69865,999,260,.26237E-4,.72E-6,0
QIANFAN-237,2026-155U,2026-07-23T18:48:10.784160,14.24432734,.0030832,89.0060,59.9682,193.8581,166.1769,0,U,69866,999,259,.28596E-4,.81E-6,0
QIANFAN-238,2026-155V,2026-07-23T18:41:36.489120,14.26740101,.0031224,89.0061,59.9675,194.1298,165.9025,0,U,69867,999,260,.87828E-4,.228E-5,0
CZ-8A R/B,2026-155W,2026-07-23T18:51:42.528096,14.48274904,.0106582,88.9651,59.8431,74.9121,286.3848,0,U,69868,999,263,.88081E-4,.372E-5,0
CAS500-4,2026-156A,2026-07-23T20:16:57.047808,13.99858418,.0011975,98.9939,104.7757,175.4700,184.6574,0,U,69869,999,231,-.54885E-4,-.124E-5,0
TRANSPORTER-17 OBJECT B,2026-156B,2026-07-23T10:35:44.272032,14.91663445,.0008435,97.7510,104.6247,93.3981,266.8203,0,U,69870,999,240,.21309E-3,.2087E-4,0
PELICAN-11,2026-156C,2026-07-23T15:25:04.980864,14.91674973,.0007588,97.7549,104.8331,96.1903,264.0181,0,U,69871,999,224,.40866E-4,.355E-5,0
TRANSPORTER-17 OBJECT D,2026-156D,2026-07-23T15:40:10.949664,14.90717400,.0005025,97.7514,104.8110,66.4685,293.7061,0,U,69872,999,243,.94917E-4,.877E-5,0
TRANSPORTER-17 OBJECT E,2026-156E,2026-07-23T12:13:21.074016,14.91583231,.0007417,97.7550,104.6998,93.7432,266.4635,0,U,69873,999,241,.78822E-4,.735E-5,0
TRANSPORTER-17 OBJECT F,2026-156F,2026-07-23T10:48:00.370656,14.90868396,.0004717,97.7519,104.6165,79.9998,280.1752,0,U,69874,999,240,.1591E-3,.1513E-4,0
TRANSPORTER-17 OBJECT G,2026-156G,2026-07-23T10:47:14.550144,14.90913664,.0005142,97.7505,104.6147,77.0700,283.1092,0,U,69875,999,240,.12563E-3,.1184E-4,0
TRANSPORTER-17 OBJECT H,2026-156H,2026-07-23T16:58:03.218016,14.91893462,.0008566,97.7166,104.8771,98.3986,261.8204,0,U,69876,999,244,.25778E-3,.2552E-4,0
TRANSPORTER-17 OBJECT J,2026-156J,2026-07-23T15:30:27.943200,14.91358291,.0006612,97.7541,104.8266,88.8818,271.3158,0,U,69877,999,243,.31793E-3,.3117E-4,0
TRANSPORTER-17 OBJECT K,2026-156K,2026-07-23T15:24:24.327936,14.91719261,.0008399,97.7509,104.8235,94.0137,266.2042,0,U,69878,999,243,.73009E-4,.679E-5,0
TRANSPORTER-17 OBJECT L,2026-156L,2026-07-23T07:24:54.691776,14.91498997,.0007212,97.7547,104.4994,92.4257,267.7787,0,U,69879,999,238,.1175E-3,.1121E-4,0
TRANSPORTER-17 OBJECT M,2026-156M,2026-07-23T15:35:20.764896,14.91034701,.0006347,97.7451,104.8036,71.7344,288.4565,0,U,69880,999,243,.17082E-3,.1635E-4,0
TRANSPORTER-17 OBJECT N,2026-156N,2026-07-23T15:35:21.591744,14.91023815,.0005751,97.7486,104.8107,77.0313,283.1547,0,U,69881,999,243,.65805E-4,.596E-5,0
TRANSPORTER-17 OBJECT P,2026-156P,2026-07-23T15:35:01.902912,14.91071204,.0005101,97.7559,104.8252,92.4356,267.7446,0,U,69882,999,243,.36523E-3,.3563E-4,0
TRANSPORTER-17 OBJECT Q,2026-156Q,2026-07-23T12:17:37.331232,14.91306567,.0006558,97.7541,104.6931,88.7910,271.4060,0,U,69883,999,241,.64858E-4,.591E-5,0
YAM-17,2026-156R,2026-07-23T16:59:15.070848,14.91836864,.0008607,97.7510,104.8917,96.6483,263.5715,0,U,69884,999,244,.12321E-3,.1189E-4,0
TRANSPORTER-17 OBJECT S,2026-156S,2026-07-23T10:38:52.432224,14.91444903,.0007446,97.7518,104.6240,88.3609,271.8463,0,U,69885,999,240,.75433E-4,.699E-5,0
TRANSPORTER-17 OBJECT T,2026-156T,2026-07-23T16:59:10.449312,14.91836084,.0008335,97.7547,104.9001,99.1052,261.1110,0,U,69886,999,243,.80963E-4,.762E-5,0
TRANSPORTER-17 OBJECT U,2026-156U,2026-07-23T16:59:37.081248,14.91800620,.0008181,97.7545,104.8993,98.9728,261.2417,0,U,69887,999,244,.22941E-4,.176E-5,0
TRANSPORTER-17 OBJECT V,2026-156V,2026-07-23T17:07:13.235232,14.91336378,.0006505,97.7559,104.8951,89.5396,270.6568,0,U,69888,999,228,.17409E-3,.168E-4,0
TRANSPORTER-17 OBJECT W,2026-156W,2026-07-23T12:15:38.788704,14.91449115,.000714,97.7546,104.6962,90.2338,269.9699,0,U,69889,999,241,.16753E-3,.162E-4,0
TRANSPORTER-17 OBJECT X,2026-156X,2026-07-23T20:11:32.754048,14.91881444,.0008643,97.7541,105.0313,99.1757,261.0440,0,U,69890,999,246,.23368E-4,.18E-5,0
TRANSPORTER-17 OBJECT Y,2026-156Y,2026-07-23T07:24:23.295744,14.91527151,.00078,97.7510,104.4914,90.2331,269.9782,0,U,69891,999,238,.73013E-4,.676E-5,0
TRANSPORTER-17 OBJECT Z,2026-156Z,2026-07-23T16:57:47.075040,14.91931435,.0008872,97.7528,104.8971,98.7228,261.4996,0,U,69892,999,244,.12251E-3,.1184E-4,0
TRANSPORTER-17 OBJECT AA,2026-156AA,2026-07-23T15:29:34.488384,14.91405661,.0007026,97.7535,104.8261,88.5609,271.6415,0,U,69893,999,243,.21946E-3,.2137E-4,0
TRANSPORTER-17 OBJECT AB,2026-156AB,2026-07-23T12:13:59.941056,14.91540702,.0007322,97.7549,104.6988,93.0044,267.2013,0,U,69894,999,241,.73938E-4,.685E-5,0
