QIANFAN-236             
1 69865U 26155T   26204.79093167  .00000072  00000+0  26237-4 0  9991
2 69865  89.0061  59.9693 0029681 193.6709 166.3682 14.21104005  2600
QIANFAN-237             
1 69866U 26155U   26204.78345815  .00000081  00000+0  28596-4 0  9991
2 69866  89.0060  59.9682 0030832 193.8581 166.1769 14.24432734  2596
QIANFAN-238             
1 69867U 26155V   26204.77889455  .00000228  00000+0  87828-4 0  9990
2 69867  89.0061  59.9675 0031224 194.1298 165.9025 14.26740101  2601
CZ-8A R/B               
1 69868U 26155W   26204.78590889  .00000372  00000+0  88081-4 0  9994
2 69868  88.9651  59.8431 0106582  74.9121 286.3848 14.48274904  2635
CAS500-4                
1 69869U 26156A   26204.84510472 -.00000124  00000+0 -54885-4 0  9995
2 69869  98.9939 104.7757 0011975 175.4700 184.6574 13.99858418  2312
TRANSPORTER-17 OBJECT B 
1 69870U 26156B   26204.44148463  .00002087  00000+0  21309-3 0  9992
2 69870  97.7510 104.6247 0008435  93.3981 266.8203 14.91663445  2404
PELICAN-11              
1 69871U 26156C   26204.64241876  .00000355  00000+0  40866-4 0  9993
2 69871  97.7549 104.8331 0007588  96.1903 264.0181 14.91674973  2241
TRANSPORTER-17 OBJECT D 
1 69872U 26156D   26204.65290451  .00000877  00000+0  94917-4 0  9993
2 69872  97.7514 104.8110 0005025  66.4685 293.7061 14.90717400  2439
TRANSPORTER-17 OBJECT E 
1 69873U 26156E   26204.50927169  .00000735  00000+0  78822-4 0  9991
2 69873  97.7550 104.6998 0007417  93.7432 266.4635 14.91583231  2418
TRANSPORTER-17 OBJECT F 
1 69874U 26156F   26204.45000429  .00001513  00000+0  15910-3 0  9990
2 69874  97.7519 104.6165 0004717  79.9998 280.1752 14.90868396  2402
TRANSPORTER-17 OBJECT G 
1 69875U 26156G   26204.44947396  .00001184  00000+0  12563-3 0  9998
2 69875  97.7505 104.6147 0005142  77.0700 283.1092 14.90913664  2400
TRANSPORTER-17 OBJECT H 
1 69876U 26156H   26204.70698169  .00002552  00000+0  25778-3 0  9991
2 69876  97.7166 104.8771 0008566  98.3986 261.8204 14.91893462  2440
TRANSPORTER-17 OBJECT J 
1 69877U 26156J   26204.64615675  .00003117  00000+0  31793-3 0  9998
2 69877  97.7541 104.8266 0006612  88.8818 271.3158 14.91358291  2434
TRANSPORTER-17 OBJECT K 
1 69878U 26156K   26204.64194824  .00000679  00000+0  73009-4 0  9994
2 69878  97.7509 104.8235 0008399  94.0137 266.2042 14.91719261  2435
TRANSPORTER-17 OBJECT L 
1 69879U 26156L   26204.30896634  .00001121  00000+0  11750-3 0  9993
2 69879  97.7547 104.4994 0007212  92.4257 267.7787 14.91498997  2380
TRANSPORTER-17 OBJECT M 
1 69880U 26156M   26204.64954589  .00001635  00000+0  17082-3 0  9990
2 69880  97.7451 104.8036 0006347  71.7344 288.4565 14.91034701  2431
TRANSPORTER-17 OBJECT N 
1 69881U 26156N   26204.64955546  .00000596  00000+0  65805-4 0  9997
2 69881  97.7486 104.8107 0005751  77.0313 283.1547 14.91023815  2438
TRANSPORTER-17 OBJECT P 
1 69882U 26156P   26204.64932758  .00003563  00000+0  36523-3 0  9999
2 69882  97.7559 104.8252 0005101  92.4356 267.7446 14.91071204  2439
TRANSPORTER-17 OBJECT Q 
1 69883U 26156Q   26204.51223763  .00000591  00000+0  64858-4 0  9996
2 69883  97.7541 104.6931 0006558  88.7910 271.4060 14.91306567  2419
YAM-17                  
1 69884U 26156R   26204.70781332  .00001189  00000+0  12321-3 0  9990
2 69884  97.7510 104.8917 0008607  96.6483 263.5715 14.91836864  2442
TRANSPORTER-17 OBJECT S 
1 69885U 26156S   26204.44366241  .00000699  00000+0  75433-4 0  9999
2 69885  97.7518 104.6240 0007446  88.3609 271.8463 14.91444903  2403
TRANSPORTER-17 OBJECT T 
1 69886U 26156T   26204.70775983  .00000762  00000+0  80963-4 0  9991
2 69886  97.7547 104.9001 0008335  99.1052 261.1110 14.91836084  2433
TRANSPORTER-17 OBJECT U 
1 69887U 26156U   26204.70806807  .00000176  00000+0  22941-4 0  9993
2 69887  97.7545 104.8993 0008181  98.9728 261.2417 14.91800620  2446
TRANSPORTER-17 OBJECT V 
1 69888U 26156V   26204.71334763  .00001680  00000+0  17409-3 0  9995
2 69888  97.7559 104.8951 0006505  89.5396 270.6568 14.91336378  2288
TRANSPORTER-17 OBJECT W 
1 69889U 26156W   26204.51086561  .00001620  00000+0  16753-3 0  9999
2 69889  97.7546 104.6962 0007140  90.2338 269.9699 14.91449115  2411
TRANSPORTER-17 OBJECT X 
1 69890U 26156X   26204.84135132  .00000180  00000+0  23368-4 0  9997
2 69890  97.7541 105.0313 0008643  99.1757 261.0440 14.91881444  2462
TRANSPORTER-17 OBJECT Y 
1 69891U 26156Y   26204.30860296  .00000676  00000+0  73013-4 0  9997
2 69891  97.7510 104.4914 0007800  90.2331 269.9782 14.91527151  2382
TRANSPORTER-17 OBJECT Z 
1 69892U 26156Z   26204.70679485  .00001184  00000+0  12251-3 0  9991
2 69892  97.7528 104.8971 0008872  98.7228 261.4996 14.91931435  2442
TRANSPORTER-17 OBJECT AA
1 69893U 26156AA  26204.64553806  .00002137  00000+0  21946-3 0  9993
2 69893  97.7535 104.8261 0007026  88.5609 271.6415 14.91405661  2438
TRANSPORTER-17 OBJECT AB
1 69894U 26156AB  26204.50972154  .00000685  00000+0  73938-4 0  9995
2 69894  97.7549 104.6988 0007322  93.0044 267.2013 14.91540702  2410
